FLOCK 4H-21             
1 66724U 25276BL  25356.88037138  .00011467  00000+0  56099-3 0  9996
2 66724  97.4391  68.4906 0002615 167.1510 192.9791 15.18358563  2913
FLOCK 4H-22             
1 66725U 25276BM  25356.49809945  .00006983  00000+0  35181-3 0  9993
2 66725  97.4379  68.0794 0001599 294.6705  65.4362 15.17482654  3606
FLOCK 4H-23             
1 66726U 25276BN  25356.89732659 -.00001019  00000+0 -47965-4 0  9996
2 66726  97.4443  68.4876 0003112 236.9985 123.0949 15.17209511  3663
FLOCK 4H-24             
1 66727U 25276BP  25356.89564942  .00005867  00000+0  29746-3 0  9994
2 66727  97.4442  68.4916 0002806 262.3987  97.6928 15.17324163  3666
FLOCK 4H-25             
1 66728U 25276BQ  25356.81564371  .00006865  00000+0  33881-3 0  9997
2 66728  97.4399  68.4291 0001642 117.6483 242.4918 15.18209249  2930
FLOCK 4H-26             
1 66729U 25276BR  25356.89881925  .00007940  00000+0  40328-3 0  9992
2 66729  97.4393  68.4698 0003713 261.1582  98.9231 15.17147937  3669
FLOCK 4H-27             
1 66730U 25276BS  25356.88368583  .00011309  00000+0  55769-3 0  9992
2 66730  97.4374  68.4835 0001185 128.0091 232.1250 15.18085079  3662
FLOCK 4H-28             
1 66731U 25276BT  25356.89850574  .00010946  00000+0  55465-3 0  9999
2 66731  97.4380  68.4668 0003331 263.5477  96.5377 15.17138775  3665
FLOCK 4H-29             
1 66732U 25276BU  25356.89638376 -.00134913  00000+0 -69849-2 0  9997
2 66732  97.4389  68.4736 0003120 192.4703 167.6454 15.16854776  3660
FLOCK 4H-30             
1 66733U 25276BV  25356.63359879  .00025007  00000+0  12569-2 0  9996
2 66733  97.4437  68.2255 0003296 267.9679  92.1177 15.17239498  3622
FLOCK 4H-31             
1 66734U 25276BW  25356.89727469 -.00041236  00000+0 -20874-2 0  9991
2 66734  97.4359  68.4659 0003172 271.9772  88.1098 15.17158603  3667
FLOCK 4H-32             
1 66735U 25276BX  25356.89770165  .00011113  00000+0  56167-3 0  9997
2 66735  97.4427  68.4827 0003621 259.1312 100.9514 15.17224562  3662
