CCSDS_OMM_VERS = 2.0
CREATION_DATE  = 
ORIGINATOR     = 

OBJECT_NAME    = FLOCK 4H-21
OBJECT_ID      = 2025-276BL
CENTER_NAME    = EARTH
REF_FRAME      = TEME
TIME_SYSTEM    = UTC
MEAN_ELEMENT_THEORY = SGP/SGP4

EPOCH          = 2025-12-22T21:07:44.087232
MEAN_MOTION    = 15.18358563
ECCENTRICITY   = .00026155
INCLINATION    = 97.4391
RA_OF_ASC_NODE = 68.4906
ARG_OF_PERICENTER = 167.1510
MEAN_ANOMALY   = 192.9791

EPHEMERIS_TYPE = 0
CLASSIFICATION_TYPE = U
NORAD_CAT_ID   = 66724
ELEMENT_SET_NO = 999
REV_AT_EPOCH   = 291
BSTAR          = .5609866E-3
MEAN_MOTION_DOT = .11467E-3
MEAN_MOTION_DDOT = 0

CCSDS_OMM_VERS = 2.0
CREATION_DATE  = 
ORIGINATOR     = 

OBJECT_NAME    = FLOCK 4H-22
OBJECT_ID      = 2025-276BM
CENTER_NAME    = EARTH
REF_FRAME      = TEME
TIME_SYSTEM    = UTC
MEAN_ELEMENT_THEORY = SGP/SGP4

EPOCH          = 2025-12-22T11:57:15.792480
MEAN_MOTION    = 15.17482654
ECCENTRICITY   = .00015992
INCLINATION    = 97.4379
RA_OF_ASC_NODE = 68.0794
ARG_OF_PERICENTER = 294.6705
MEAN_ANOMALY   = 65.4362

EPHEMERIS_TYPE = 0
CLASSIFICATION_TYPE = U
NORAD_CAT_ID   = 66725
ELEMENT_SET_NO = 999
REV_AT_EPOCH   = 360
BSTAR          = .35180603E-3
MEAN_MOTION_DOT = .6983E-4
MEAN_MOTION_DDOT = 0

CCSDS_OMM_VERS = 2.0
CREATION_DATE  = 
ORIGINATOR     = 

OBJECT_NAME    = FLOCK 4H-23
OBJECT_ID      = 2025-276BN
CENTER_NAME    = EARTH
REF_FRAME      = TEME
TIME_SYSTEM    = UTC
MEAN_ELEMENT_THEORY = SGP/SGP4

EPOCH          = 2025-12-22T21:32:09.017376
MEAN_MOTION    = 15.17209511
ECCENTRICITY   = .00031123
INCLINATION    = 97.4443
RA_OF_ASC_NODE = 68.4876
ARG_OF_PERICENTER = 236.9985
MEAN_ANOMALY   = 123.0949

EPHEMERIS_TYPE = 0
CLASSIFICATION_TYPE = U
NORAD_CAT_ID   = 66726
ELEMENT_SET_NO = 999
REV_AT_EPOCH   = 366
BSTAR          = -.47965352E-4
MEAN_MOTION_DOT = -.1019E-4
MEAN_MOTION_DDOT = 0

CCSDS_OMM_VERS = 2.0
CREATION_DATE  = 
ORIGINATOR     = 

OBJECT_NAME    = FLOCK 4H-24
OBJECT_ID      = 2025-276BP
CENTER_NAME    = EARTH
REF_FRAME      = TEME
TIME_SYSTEM    = UTC
MEAN_ELEMENT_THEORY = SGP/SGP4

EPOCH          = 2025-12-22T21:29:44.109888
MEAN_MOTION    = 15.17324163
ECCENTRICITY   = .0002806
INCLINATION    = 97.4442
RA_OF_ASC_NODE = 68.4916
ARG_OF_PERICENTER = 262.3987
MEAN_ANOMALY   = 97.6928

EPHEMERIS_TYPE = 0
CLASSIFICATION_TYPE = U
NORAD_CAT_ID   = 66727
ELEMENT_SET_NO = 999
REV_AT_EPOCH   = 366
BSTAR          = .29746226E-3
MEAN_MOTION_DOT = .5867E-4
MEAN_MOTION_DDOT = 0

CCSDS_OMM_VERS = 2.0
CREATION_DATE  = 
ORIGINATOR     = 

OBJECT_NAME    = FLOCK 4H-25
OBJECT_ID      = 2025-276BQ
CENTER_NAME    = EARTH
REF_FRAME      = TEME
TIME_SYSTEM    = UTC
MEAN_ELEMENT_THEORY = SGP/SGP4

EPOCH          = 2025-12-22T19:34:31.616544
MEAN_MOTION    = 15.18209249
ECCENTRICITY   = .00016428
INCLINATION    = 97.4399
RA_OF_ASC_NODE = 68.4291
ARG_OF_PERICENTER = 117.6483
MEAN_ANOMALY   = 242.4918

EPHEMERIS_TYPE = 0
CLASSIFICATION_TYPE = U
NORAD_CAT_ID   = 66728
ELEMENT_SET_NO = 999
REV_AT_EPOCH   = 293
BSTAR          = .33881431E-3
MEAN_MOTION_DOT = .6865E-4
MEAN_MOTION_DDOT = 0

CCSDS_OMM_VERS = 2.0
CREATION_DATE  = 
ORIGINATOR     = 

OBJECT_NAME    = FLOCK 4H-26
OBJECT_ID      = 2025-276BR
CENTER_NAME    = EARTH
REF_FRAME      = TEME
TIME_SYSTEM    = UTC
MEAN_ELEMENT_THEORY = SGP/SGP4

EPOCH          = 2025-12-22T21:34:17.983200
MEAN_MOTION    = 15.17147937
ECCENTRICITY   = .00037131
INCLINATION    = 97.4393
RA_OF_ASC_NODE = 68.4698
ARG_OF_PERICENTER = 261.1582
MEAN_ANOMALY   = 98.9231

EPHEMERIS_TYPE = 0
CLASSIFICATION_TYPE = U
NORAD_CAT_ID   = 66729
ELEMENT_SET_NO = 999
REV_AT_EPOCH   = 366
BSTAR          = .40328046E-3
MEAN_MOTION_DOT = .794E-4
MEAN_MOTION_DDOT = 0

CCSDS_OMM_VERS = 2.0
CREATION_DATE  = 
ORIGINATOR     = 

OBJECT_NAME    = FLOCK 4H-27
OBJECT_ID      = 2025-276BS
CENTER_NAME    = EARTH
REF_FRAME      = TEME
TIME_SYSTEM    = UTC
MEAN_ELEMENT_THEORY = SGP/SGP4

EPOCH          = 2025-12-22T21:12:30.455712
MEAN_MOTION    = 15.18085079
ECCENTRICITY   = .00011859
INCLINATION    = 97.4374
RA_OF_ASC_NODE = 68.4835
ARG_OF_PERICENTER = 128.0091
MEAN_ANOMALY   = 232.1250

EPHEMERIS_TYPE = 0
CLASSIFICATION_TYPE = U
NORAD_CAT_ID   = 66730
ELEMENT_SET_NO = 999
REV_AT_EPOCH   = 366
BSTAR          = .55768785E-3
MEAN_MOTION_DOT = .11309E-3
MEAN_MOTION_DDOT = 0

CCSDS_OMM_VERS = 2.0
CREATION_DATE  = 
ORIGINATOR     = 

OBJECT_NAME    = FLOCK 4H-28
OBJECT_ID      = 2025-276BT
CENTER_NAME    = EARTH
REF_FRAME      = TEME
TIME_SYSTEM    = UTC
MEAN_ELEMENT_THEORY = SGP/SGP4

EPOCH          = 2025-12-22T21:33:50.895936
MEAN_MOTION    = 15.17138775
ECCENTRICITY   = .00033317
INCLINATION    = 97.4380
RA_OF_ASC_NODE = 68.4668
ARG_OF_PERICENTER = 263.5477
MEAN_ANOMALY   = 96.5377

EPHEMERIS_TYPE = 0
CLASSIFICATION_TYPE = U
NORAD_CAT_ID   = 66731
ELEMENT_SET_NO = 999
REV_AT_EPOCH   = 366
BSTAR          = .55465396E-3
MEAN_MOTION_DOT = .10946E-3
MEAN_MOTION_DDOT = 0

CCSDS_OMM_VERS = 2.0
CREATION_DATE  = 
ORIGINATOR     = 

OBJECT_NAME    = FLOCK 4H-29
OBJECT_ID      = 2025-276BU
CENTER_NAME    = EARTH
REF_FRAME      = TEME
TIME_SYSTEM    = UTC
MEAN_ELEMENT_THEORY = SGP/SGP4

EPOCH          = 2025-12-22T21:30:47.556864
MEAN_MOTION    = 15.16854776
ECCENTRICITY   = .00031206
INCLINATION    = 97.4389
RA_OF_ASC_NODE = 68.4736
ARG_OF_PERICENTER = 192.4703
MEAN_ANOMALY   = 167.6454

EPHEMERIS_TYPE = 0
CLASSIFICATION_TYPE = U
NORAD_CAT_ID   = 66732
ELEMENT_SET_NO = 999
REV_AT_EPOCH   = 366
BSTAR          = -.69848879E-2
MEAN_MOTION_DOT = -.134913E-2
MEAN_MOTION_DDOT = 0

CCSDS_OMM_VERS = 2.0
CREATION_DATE  = 
ORIGINATOR     = 

OBJECT_NAME    = FLOCK 4H-30
OBJECT_ID      = 2025-276BV
CENTER_NAME    = EARTH
REF_FRAME      = TEME
TIME_SYSTEM    = UTC
MEAN_ELEMENT_THEORY = SGP/SGP4

EPOCH          = 2025-12-22T15:12:22.935456
MEAN_MOTION    = 15.17239498
ECCENTRICITY   = .00032964
INCLINATION    = 97.4437
RA_OF_ASC_NODE = 68.2255
ARG_OF_PERICENTER = 267.9679
MEAN_ANOMALY   = 92.1177

EPHEMERIS_TYPE = 0
CLASSIFICATION_TYPE = U
NORAD_CAT_ID   = 66733
ELEMENT_SET_NO = 999
REV_AT_EPOCH   = 362
BSTAR          = .1256861E-2
MEAN_MOTION_DOT = .25007E-3
MEAN_MOTION_DDOT = 0

CCSDS_OMM_VERS = 2.0
CREATION_DATE  = 
ORIGINATOR     = 

OBJECT_NAME    = FLOCK 4H-31
OBJECT_ID      = 2025-276BW
CENTER_NAME    = EARTH
REF_FRAME      = TEME
TIME_SYSTEM    = UTC
MEAN_ELEMENT_THEORY = SGP/SGP4

EPOCH          = 2025-12-22T21:32:04.533216
MEAN_MOTION    = 15.17158603
ECCENTRICITY   = .00031721
INCLINATION    = 97.4359
RA_OF_ASC_NODE = 68.4659
ARG_OF_PERICENTER = 271.9772
MEAN_ANOMALY   = 88.1098

EPHEMERIS_TYPE = 0
CLASSIFICATION_TYPE = U
NORAD_CAT_ID   = 66734
ELEMENT_SET_NO = 999
REV_AT_EPOCH   = 366
BSTAR          = -.20873911E-2
MEAN_MOTION_DOT = -.41236E-3
MEAN_MOTION_DDOT = 0

CCSDS_OMM_VERS = 2.0
CREATION_DATE  = 
ORIGINATOR     = 

OBJECT_NAME    = FLOCK 4H-32
OBJECT_ID      = 2025-276BX
CENTER_NAME    = EARTH
REF_FRAME      = TEME
TIME_SYSTEM    = UTC
MEAN_ELEMENT_THEORY = SGP/SGP4

EPOCH          = 2025-12-22T21:32:41.422560
MEAN_MOTION    = 15.17224562
ECCENTRICITY   = .00036212
INCLINATION    = 97.4427
RA_OF_ASC_NODE = 68.4827
ARG_OF_PERICENTER = 259.1312
MEAN_ANOMALY   = 100.9514

EPHEMERIS_TYPE = 0
CLASSIFICATION_TYPE = U
NORAD_CAT_ID   = 66735
ELEMENT_SET_NO = 999
REV_AT_EPOCH   = 366
BSTAR          = .56167243E-3
MEAN_MOTION_DOT = .11113E-3
MEAN_MOTION_DDOT = 0

